CTC1_L_00007016-03
1 72903U 26874EL  26070.40831019  .00000000  00000+0  00000-0 0  9998
2 72903  70.0000 180.0000 0000000   0.0000   0.0000 15.90815360    18
CTC1_L_00007016-04
1 72904U 24854EL  26070.40831019  .00000000  00000+0  00000-0 0  9995
2 72904  70.0000 180.0000 0000000   0.0000  90.0000 15.90815360    18
CTC1_L_00007017-01
1 72905U 26646TH  26070.40831019  .00000000  00000+0  00000-0 0  9997
2 72905  70.0000 192.0000 0000000   0.0000 192.0000 15.90815360    15
CTC1_L_00007017-02
1 72906U 25324XW  26070.40831019  .00000000  00000+0  00000-0 0  9990
2 72906  70.0000 192.0000 0000000   0.0000 282.0000 15.90815360    16
CTC1_L_00007017-03
1 72907U 25259TD  26070.40831019  .00000000  00000+0  00000-0 0  9998
2 72907  70.0000 192.0000 0000000   0.0000  12.0000 15.90815360    18
CTC1_L_00007017-04
1 72908U 24374NG  26070.40831019  .00000000  00000+0  00000-0 0  9996
2 72908  70.0000 192.0000 0000000   0.0000 102.0000 15.90815360    19
CTC1_L_00007018-01
1 72909U 23553VQ  26070.40831019  .00000000  00000+0  00000-0 0  9995
2 72909  70.0000 204.0000 0000000   0.0000 204.0000 15.90815360    17
CTC1_L_00007018-02
1 72910U 26369TN  26070.40831019  .00000000  00000+0  00000-0 0  9995
2 72910  70.0000 204.0000 0000000   0.0000 294.0000 15.90815360    18
CTC1_L_00007018-03
1 72911U 25092XK  26070.40831019  .00000000  00000+0  00000-0 0  9998
2 72911  70.0000 204.0000 0000000   0.0000  24.0000 15.90815360    10
CTC1_L_00007018-04
1 72912U 25598DC  26070.40831019  .00000000  00000+0  00000-0 0  9990
2 72912  70.0000 204.0000 0000000   0.0000 114.0000 15.90815360    11
CTC1_L_00007019-01
1 72913U 23206DP  26070.40831019  .00000000  00000+0  00000-0 0  9995
2 72913  70.0000 216.0000 0000000   0.0000 216.0000 15.90815360    18
CTC1_L_00007019-02
1 72914U 22430GT  26070.40831019  .00000000  00000+0  00000-0 0  9994
2 72914  70.0000 216.0000 0000000   0.0000 306.0000 15.90815360    19
CTC1_L_00007019-03
1 72915U 24627KC  26070.40831019  .00000000  00000+0  00000-0 0  9995
2 72915  70.0000 216.0000 0000000   0.0000  36.0000 15.90815360    10
CTC1_L_00007019-04
1 72916U 22473BH  26070.40831019  .00000000  00000+0  00000-0 0  9993
2 72916  70.0000 216.0000 0000000   0.0000 126.0000 15.90815360    11
CTC1_L_00007020-01
1 72917U 22503DH  26070.40831019  .00000000  00000+0  00000-0 0  9998
2 72917  70.0000 228.0000 0000000   0.0000 228.0000 15.90815360    18
CTC1_L_00007020-02
1 72918U 26602HU  26070.40831019  .00000000  00000+0  00000-0 0  9993
2 72918  70.0000 228.0000 0000000   0.0000 318.0000 15.90815360    19
CTC1_L_00007020-03
1 72919U 25940HM  26070.40831019  .00000000  00000+0  00000-0 0  9998
2 72919  70.0000 228.0000 0000000   0.0000  48.0000 15.90815360    10
CTC1_L_00007020-04
1 72920U 22146BU  26070.40831019  .00000000  00000+0  00000-0 0  9995
2 72920  70.0000 228.0000 0000000   0.0000 138.0000 15.90815360    12
CTC1_L_00007021-01
1 72921U 23413Q   26070.40831019  .00000000  00000+0  00000-0 0  9994
2 72921  70.0000 240.0000 0000000   0.0000 240.0000 15.90815360    11
CTC1_L_00007021-02
1 72922U 22750GI  26070.40831019  .00000000  00000+0  00000-0 0  9998
2 72922  70.0000 240.0000 0000000   0.0000 330.0000 15.90815360    12
CTC1_L_00007021-03
1 72923U 25961NK  26070.40831019  .00000000  00000+0  00000-0 0  9996
2 72923  70.0000 240.0000 0000000   0.0000  60.0000 15.90815360    13
CTC1_L_00007021-04
1 72924U 23171OT  26070.40831019  .00000000  00000+0  00000-0 0  9998
2 72924  70.0000 240.0000 0000000   0.0000 150.0000 15.90815360    14
CTC1_L_00007022-01
1 72925U 24022BD  26070.40831019  .00000000  00000+0  00000-0 0  9995
2 72925  70.0000 252.0000 0000000   0.0000 252.0000 15.90815360    11
CTC1_L_00007022-02
1 72926U 26339PW  26070.40831019  .00000000  00000+0  00000-0 0  9999
2 72926  70.0000 252.0000 0000000   0.0000 342.0000 15.90815360    12
CTC1_L_00007022-03
1 72927U 25258EQ  26070.40831019  .00000000  00000+0  00000-0 0  9999
2 72927  70.0000 252.0000 0000000   0.0000  72.0000 15.90815360    13
CTC1_L_00007022-04
1 72928U 25700EV  26070.40831019  .00000000  00000+0  00000-0 0  9992
2 72928  70.0000 252.0000 0000000   0.0000 162.0000 15.90815360    14
CTC1_L_00007023-01
1 72929U 25965GM  26070.40831019  .00000000  00000+0  00000-0 0  9996
2 72929  70.0000 264.0000 0000000   0.0000 264.0000 15.90815360    11
CTC1_L_00007023-02
1 72930U 22586MM  26070.40831019  .00000000  00000+0  00000-0 0  9994
2 72930  70.0000 264.0000 0000000   0.0000 354.0000 15.90815360    13
CTC1_L_00007023-03
1 72931U 23151IR  26070.40831019  .00000000  00000+0  00000-0 0  9994
2 72931  70.0000 264.0000 0000000   0.0000  84.0000 15.90815360    14
CTC1_L_00007023-04
1 72932U 24369NZ  26070.40831019  .00000000  00000+0  00000-0 0  9997
2 72932  70.0000 264.0000 0000000   0.0000 174.0000 15.90815360    15
CTC1_L_00007024-01
1 72933U 26217IE  26070.40831019  .00000000  00000+0  00000-0 0  9992
2 72933  70.0000 276.0000 0000000   0.0000 276.0000 15.90815360    12
CTC1_L_00007024-02
1 72934U 26759FF  26070.40831019  .00000000  00000+0  00000-0 0  9994
2 72934  70.0000 276.0000 0000000   0.0000   6.0000 15.90815360    14
CTC1_L_00007024-03
1 72935U 25535MD  26070.40831019  .00000000  00000+0  00000-0 0  9996
2 72935  70.0000 276.0000 0000000   0.0000  96.0000 15.90815360    14
CTC1_L_00007024-04
1 72936U 23573HY  26070.40831019  .00000000  00000+0  00000-0 0  9997
2 72936  70.0000 276.0000 0000000   0.0000 186.0000 15.90815360    15
CTC1_L_00007025-01
1 72937U 24657BV  26070.40831019  .00000000  00000+0  00000-0 0  9992
2 72937  70.0000 288.0000 0000000   0.0000 288.0000 15.90815360    12
CTC1_L_00007025-02
1 72938U 26145MG  26070.40831019  .00000000  00000+0  00000-0 0  9997
2 72938  70.0000 288.0000 0000000   0.0000  18.0000 15.90815360    14
CTC1_L_00007025-03
1 72939U 26328DM  26070.40831019  .00000000  00000+0  00000-0 0  9991
2 72939  70.0000 288.0000 0000000   0.0000 108.0000 15.90815360    15
CTC1_L_00007025-04
1 72940U 24151VA  26070.40831019  .00000000  00000+0  00000-0 0  9995
2 72940  70.0000 288.0000 0000000   0.0000 198.0000 15.90815360    16
CTC1_L_00007026-01
1 72941U 26581QE  26070.40831019  .00000000  00000+0  00000-0 0  9995
2 72941  70.0000 300.0000 0000000   0.0000 300.0000 15.90815360    17
CTC1_L_00007026-02
1 72942U 23629GW  26070.40831019  .00000000  00000+0  00000-0 0  9996
2 72942  70.0000 300.0000 0000000   0.0000  30.0000 15.90815360    18
CTC1_L_00007026-03
1 72943U 25996NX  26070.40831019  .00000000  00000+0  00000-0 0  9996
2 72943  70.0000 300.0000 0000000   0.0000 120.0000 15.90815360    19
CTC1_L_00007026-04
1 72944U 22153QJ  26070.40831019  .00000000  00000+0  00000-0 0  9999
2 72944  70.0000 300.0000 0000000   0.0000 210.0000 15.90815360    10
CTC1_L_00007027-01
1 72945U 24994NX  26070.40831019  .00000000  00000+0  00000-0 0  9995
2 72945  70.0000 312.0000 0000000   0.0000 312.0000 15.90815360    17
CTC1_L_00007027-02
1 72946U 25071MY  26070.40831019  .00000000  00000+0  00000-0 0  9993
2 72946  70.0000 312.0000 0000000   0.0000  42.0000 15.90815360    18
CTC1_L_00007027-03
1 72947U 23805PV  26070.40831019  .00000000  00000+0  00000-0 0  9997
2 72947  70.0000 312.0000 0000000   0.0000 132.0000 15.90815360    19
CTC1_L_00007027-04
1 72948U 22707EH  26070.40831019  .00000000  00000+0  00000-0 0  9998
2 72948  70.0000 312.0000 0000000   0.0000 222.0000 15.90815360    10
CTC1_L_00007028-01
1 72949U 26683QX  26070.40831019  .00000000  00000+0  00000-0 0  9996
2 72949  70.0000 324.0000 0000000   0.0000 324.0000 15.90815360    17
CTC1_L_00007028-02
1 72950U 23655WF  26070.40831019  .00000000  00000+0  00000-0 0  9994
2 72950  70.0000 324.0000 0000000   0.0000  54.0000 15.90815360    19
CTC1_L_00007028-03
1 72951U 23778XG  26070.40831019  .00000000  00000+0  00000-0 0  9991
2 72951  70.0000 324.0000 0000000   0.0000 144.0000 15.90815360    10
CTC1_L_00007028-04
1 72952U 22411UE  26070.40831019  .00000000  00000+0  00000-0 0  9995
2 72952  70.0000 324.0000 0000000   0.0000 234.0000 15.90815360    11
CTC1_L_00007029-01
1 72953U 26916GT  26070.40831019  .00000000  00000+0  00000-0 0  9990
2 72953  70.0000 336.0000 0000000   0.0000 336.0000 15.90815360    18
CTC1_L_00007029-02
1 72954U 24460AO  26070.40831019  .00000000  00000+0  00000-0 0  9993
2 72954  70.0000 336.0000 0000000   0.0000  66.0000 15.90815360    19
CTC1_L_00007029-03
1 72955U 26587WJ  26070.40831019  .00000000  00000+0  00000-0 0  9996
2 72955  70.0000 336.0000 0000000   0.0000 156.0000 15.90815360    10
CTC1_L_00007029-04
1 72956U 25958ON  26070.40831019  .00000000  00000+0  00000-0 0  9998
2 72956  70.0000 336.0000 0000000   0.0000 246.0000 15.90815360    11
CTC1_L_00007030-01
1 72957U 26836AQ  26070.40831019  .00000000  00000+0  00000-0 0  9995
2 72957  70.0000 348.0000 0000000   0.0000 348.0000 15.90815360    18
CTC1_L_00007030-02
1 72958U 24249B   26070.40831019  .00000000  00000+0  00000-0 0  9992
2 72958  70.0000 348.0000 0000000   0.0000  78.0000 15.90815360    19
CTC1_L_00007030-03
1 72959U 25009LV  26070.40831019  .00000000  00000+0  00000-0 0  9998
2 72959  70.0000 348.0000 0000000   0.0000 168.0000 15.90815360    10
CTC1_L_00007030-04
1 72960U 25153W   26070.40831019  .00000000  00000+0  00000-0 0  9990
2 72960  70.0000 348.0000 0000000   0.0000 258.0000 15.90815360    12
